*******************************************************************************
JPL/HORIZONS                941 Murray (A920 TF)           2023-Sep-04 11:09:16
Rec #:     941 (+COV) Soln.date: 2023-Aug-25_01:53:32   # obs: 4263 (1920-2023)
 
IAU76/J2000 helio. ecliptic osc. elements (au, days, deg., period=Julian yrs):
 
  EPOCH=  2457575.5 ! 2016-Jul-06.00 (TDB)         Residual RMS= .25498
   EC= .1958720922071002   QR= 2.23806139416679    TP= 2458250.3138667806
   OM= 52.32159373251231   W=  335.143477279662    IN= 6.62569816857548
   A= 2.783215670638302    MA= 216.7588560393951   ADIST= 3.328369947109813
   PER= 4.64332            N= .212267636           ANGMOM= .028142314
   DAN= 2.27254            DDN= 3.25492            L= 27.6111972
   B= -2.7799825           MOID= 1.24362004        TP= 2018-May-11.8138667806
 
Asteroid physical parameters (km, seconds, rotational period in hours):
   GM= n.a.                RAD= 9.1085             ROTPER= 3.39
   H= 11.52                G= .150                 B-V= .703
                           ALBEDO= .128            STYP= X

ASTEROID comments: 
1: soln ref.= JPL#61, OCC=0
2: source=ORB
*******************************************************************************


*******************************************************************************
Ephemeris / API_USER Mon Sep  4 11:09:16 2023 Pasadena, USA      / Horizons
*******************************************************************************
Target body name: 941 Murray (A920 TF)            {source: JPL#61}
Center body name: Solar System Barycenter (0)     {source: DE441}
Center-site name: BODY CENTER
*******************************************************************************
Start time      : A.D. 2023-Aug-12 00:00:00.0000 TDB
Stop  time      : A.D. 2023-Aug-13 00:00:00.0000 TDB
Step-size       : 2880 minutes
*******************************************************************************
Center geodetic : 0.0, 0.0, 0.0                   {E-lon(deg),Lat(deg),Alt(km)}
Center cylindric: 0.0, 0.0, 0.0                   {E-lon(deg),Dxy(km),Dz(km)}
Center radii    : (undefined)
Small perturbers: Yes                             {source: SB441-N16}
Output units    : KM-S
Calendar mode   : Mixed Julian/Gregorian
Output type     : GEOMETRIC cartesian states
Output format   : 2 (position and velocity)
Reference frame : Ecliptic of J2000.0
*******************************************************************************
Initial IAU76/J2000 heliocentric ecliptic osculating elements (au, days, deg.):
  EPOCH=  2457575.5 ! 2016-Jul-06.00 (TDB)         Residual RMS= .25498        
   EC= .1958720922071002   QR= 2.23806139416679    TP= 2458250.3138667806      
   OM= 52.32159373251231   W=  335.143477279662    IN= 6.62569816857548        
  Equivalent ICRF heliocentric cartesian coordinates (au, au/d):
   X=-1.953161346426072E+00  Y=-2.381994696188022E+00  Z=-1.038083765997105E+00
  VX= 7.410027769038052E-03 VY=-3.690164573087284E-03 VZ=-2.687100163700660E-03
Asteroid physical parameters (km, seconds, rotational period in hours):        
   GM= n.a.                RAD= 9.1085             ROTPER= 3.39                
   H= 11.52                G= .150                 B-V= .703                   
                           ALBEDO= .128            STYP= X                     
*******************************************************************************
JDTDB
   X     Y     Z
   VX    VY    VZ
*******************************************************************************
$$SOE
2460168.500000000 = A.D. 2023-Aug-12 00:00:00.0000 TDB 
 X =-2.704046865716719E+07 Y = 3.698843457166483E+08 Z = 2.872479277338253E+07
 VX=-1.967708861932095E+01 VY= 1.787296724782871E+00 VZ= 1.936931384219280E+00
$$EOE
*******************************************************************************
 
TIME

  Barycentric Dynamical Time ("TDB" or T_eph) output was requested. This
continuous coordinate time is equivalent to the relativistic proper time
of a clock at rest in a reference frame co-moving with the solar system
barycenter but outside the system's gravity well. It is the independent
variable in the solar system relativistic equations of motion.

  TDB runs at a uniform rate of one SI second per second and is independent
of irregularities in Earth's rotation.
 
CALENDAR SYSTEM

  Mixed calendar mode was active such that calendar dates after AD 1582-Oct-15
(if any) are in the modern Gregorian system. Dates prior to 1582-Oct-5 (if any)
are in the Julian calendar system, which is automatically extended for dates
prior to its adoption on 45-Jan-1 BC.  The Julian calendar is useful for
matching historical dates. The Gregorian calendar more accurately corresponds
to the Earth's orbital motion and seasons. A "Gregorian-only" calendar mode is
available if such physical events are the primary interest.

REFERENCE FRAME AND COORDINATES

  Ecliptic at the standard reference epoch

    Reference epoch: J2000.0
    X-Y plane: adopted Earth orbital plane at the reference epoch
               Note: IAU76 obliquity of 84381.448 arcseconds wrt ICRF X-Y plane
    X-axis   : ICRF
    Z-axis   : perpendicular to the X-Y plane in the directional (+ or -) sense
               of Earth's north pole at the reference epoch.

  Symbol meaning:

    JDTDB    Julian Day Number, Barycentric Dynamical Time
      X      X-component of position vector (km)
      Y      Y-component of position vector (km)
      Z      Z-component of position vector (km)
      VX     X-component of velocity vector (km/sec)                           
      VY     Y-component of velocity vector (km/sec)                           
      VZ     Z-component of velocity vector (km/sec)                           

ABERRATIONS AND CORRECTIONS

 Geometric state vectors have NO corrections or aberrations applied.

Computations by ...

    Solar System Dynamics Group, Horizons On-Line Ephemeris System
    4800 Oak Grove Drive, Jet Propulsion Laboratory
    Pasadena, CA  91109   USA

    General site: https://ssd.jpl.nasa.gov/
    Mailing list: https://ssd.jpl.nasa.gov/email_list.html
    System news : https://ssd.jpl.nasa.gov/horizons/news.html
    User Guide  : https://ssd.jpl.nasa.gov/horizons/manual.html
    Connect     : browser        https://ssd.jpl.nasa.gov/horizons/app.html#/x
                  API            https://ssd-api.jpl.nasa.gov/doc/horizons.html
                  command-line   telnet ssd.jpl.nasa.gov 6775
                  e-mail/batch   https://ssd.jpl.nasa.gov/ftp/ssd/hrzn_batch.txt
                  scripts        https://ssd.jpl.nasa.gov/ftp/ssd/SCRIPTS
    Author      : Jon.D.Giorgini@jpl.nasa.gov
*******************************************************************************
